[{"OBJECT_NAME":"STARLINK-32567","OBJECT_ID":"2024-207U","EPOCH":"2026-03-09T23:14:47.109120","MEAN_MOTION":15.27586264,"ECCENTRICITY":6.466e-5,"INCLINATION":42.9999,"RA_OF_ASC_NODE":276.7809,"ARG_OF_PERICENTER":254.6199,"MEAN_ANOMALY":105.4581,"EPHEMERIS_TYPE":0,"CLASSIFICATION_TYPE":"U","NORAD_CAT_ID":61930,"ELEMENT_SET_NO":999,"REV_AT_EPOCH":7539,"BSTAR":0.00089892393,"MEAN_MOTION_DOT":0.00024561,"MEAN_MOTION_DDOT":0},{"OBJECT_NAME":"TEVEL2-1","OBJECT_ID":"2025-052H","EPOCH":"2026-03-09T15:32:51.927072","MEAN_MOTION":15.30341923,"ECCENTRICITY":0.0004767,"INCLINATION":97.3991,"RA_OF_ASC_NODE":324.7682,"ARG_OF_PERICENTER":104.8919,"MEAN_ANOMALY":255.2849,"EPHEMERIS_TYPE":0,"CLASSIFICATION_TYPE":"U","NORAD_CAT_ID":63217,"ELEMENT_SET_NO":999,"REV_AT_EPOCH":5485,"BSTAR":0.000706,"MEAN_MOTION_DOT":0.00020683,"MEAN_MOTION_DDOT":0}]
